STARLINK-36648          
1 67825U 26033E   26070.96411060  .00221573  00000+0  10251-2 0  9994
2 67825  42.9983 257.5439 0001754 258.2630 101.8045 15.82077534  4985
STARLINK-35865          
1 67826U 26033F   26070.58456530  .00499249  00000+0  22353-2 0  9997
2 67826  42.9984 259.8588 0004468 297.1645  62.8771 15.82053400  4922
STARLINK-36289          
1 67827U 26033G   26071.25001157 -.01940646  00000+0 -14601-1 0  9995
2 67827  42.9994 255.8233 0001522 270.9947 266.5033 15.74998421  5072
STARLINK-36670          
1 67828U 26033H   26069.88860328  .00529095  00000+0  23515-2 0  9998
2 67828  42.9984 264.1031 0002069 319.1211  40.9505 15.82137911  4815
STARLINK-36144          
1 67829U 26033J   26071.25001157 -.01941943  00000+0 -14128-1 0  9992
2 67829  42.9994 255.7903 0001504 270.4643 279.9342 15.75757158  5077
STARLINK-36611          
1 67830U 26033K   26071.25001157 -.01945259  00000+0 -12843-1 0  9990
2 67830  42.9992 255.7556 0001426 269.5991 294.7683 15.77920256  5075
STARLINK-36661          
1 67831U 26033L   26071.21140799  .00527891  00000+0  23429-2 0  9991
2 67831  42.9977 255.9540 0001294 308.9205  51.1551 15.82169346  5028
STARLINK-36662          
1 67832U 26033M   26071.25001157 -.00069998  00000+0 -29604-3 0  9993
2 67832  42.9977 254.7758 0001927 249.1891 343.2229 15.84461878  5076
STARLINK-36659          
1 67833U 26033N   26069.88560167  .00548655  00000+0  24307-2 0  9995
2 67833  42.9978 264.0779 0001992 269.6927  90.3717 15.82155791  4819
STARLINK-36655          
1 67834U 26033P   26071.25001157 -.01941193  00000+0 -12805-1 0  9995
2 67834  42.9993 255.7235 0001421 267.7517 309.4845 15.77932191  5078
STARLINK-36657          
1 67835U 26033Q   26071.25001157 -.01930683  00000+0 -10521-1 0  9991
2 67835  42.9994 255.6942 0000932 262.2705 326.5002 15.82032008  5078
STARLINK-36650          
1 67836U 26033R   26071.25001157 -.01977955  00000+0 -15502-1 0  9999
2 67836  42.9994 255.7606 0001388 269.3956 292.9214 15.73593952  5070
