CCSDS_OMM_VERS = 2.0
CREATION_DATE  = 
ORIGINATOR     = 

OBJECT_NAME    = STARLINK-36648
OBJECT_ID      = 2026-033E
CENTER_NAME    = EARTH
REF_FRAME      = TEME
TIME_SYSTEM    = UTC
MEAN_ELEMENT_THEORY = SGP/SGP4

EPOCH          = 2026-03-11T23:08:19.155840
MEAN_MOTION    = 15.82077534
ECCENTRICITY   = .00017547
INCLINATION    = 42.9983
RA_OF_ASC_NODE = 257.5439
ARG_OF_PERICENTER = 258.2630
MEAN_ANOMALY   = 101.8045

EPHEMERIS_TYPE = 0
CLASSIFICATION_TYPE = U
NORAD_CAT_ID   = 67825
ELEMENT_SET_NO = 999
REV_AT_EPOCH   = 498
BSTAR          = .10251279E-2
MEAN_MOTION_DOT = .221573E-2
MEAN_MOTION_DDOT = 0

CCSDS_OMM_VERS = 2.0
CREATION_DATE  = 
ORIGINATOR     = 

OBJECT_NAME    = STARLINK-35865
OBJECT_ID      = 2026-033F
CENTER_NAME    = EARTH
REF_FRAME      = TEME
TIME_SYSTEM    = UTC
MEAN_ELEMENT_THEORY = SGP/SGP4

EPOCH          = 2026-03-11T14:01:46.441920
MEAN_MOTION    = 15.82053400
ECCENTRICITY   = .00044685
INCLINATION    = 42.9984
RA_OF_ASC_NODE = 259.8588
ARG_OF_PERICENTER = 297.1645
MEAN_ANOMALY   = 62.8771

EPHEMERIS_TYPE = 0
CLASSIFICATION_TYPE = U
NORAD_CAT_ID   = 67826
ELEMENT_SET_NO = 999
REV_AT_EPOCH   = 492
BSTAR          = .2235252E-2
MEAN_MOTION_DOT = .499249E-2
MEAN_MOTION_DDOT = 0

CCSDS_OMM_VERS = 2.0
CREATION_DATE  = 
ORIGINATOR     = 

OBJECT_NAME    = STARLINK-36289
OBJECT_ID      = 2026-033G
CENTER_NAME    = EARTH
REF_FRAME      = TEME
TIME_SYSTEM    = UTC
MEAN_ELEMENT_THEORY = SGP/SGP4

EPOCH          = 2026-03-12T06:00:00.999648
MEAN_MOTION    = 15.74998421
ECCENTRICITY   = .00015224
INCLINATION    = 42.9994
RA_OF_ASC_NODE = 255.8233
ARG_OF_PERICENTER = 270.9947
MEAN_ANOMALY   = 266.5033

EPHEMERIS_TYPE = 0
CLASSIFICATION_TYPE = U
NORAD_CAT_ID   = 67827
ELEMENT_SET_NO = 999
REV_AT_EPOCH   = 507
BSTAR          = -.14600943E-1
MEAN_MOTION_DOT = -.1940646E-1
MEAN_MOTION_DDOT = 0

CCSDS_OMM_VERS = 2.0
CREATION_DATE  = 
ORIGINATOR     = 

OBJECT_NAME    = STARLINK-36670
OBJECT_ID      = 2026-033H
CENTER_NAME    = EARTH
REF_FRAME      = TEME
TIME_SYSTEM    = UTC
MEAN_ELEMENT_THEORY = SGP/SGP4

EPOCH          = 2026-03-10T21:19:35.323392
MEAN_MOTION    = 15.82137911
ECCENTRICITY   = .0002069
INCLINATION    = 42.9984
RA_OF_ASC_NODE = 264.1031
ARG_OF_PERICENTER = 319.1211
MEAN_ANOMALY   = 40.9505

EPHEMERIS_TYPE = 0
CLASSIFICATION_TYPE = U
NORAD_CAT_ID   = 67828
ELEMENT_SET_NO = 999
REV_AT_EPOCH   = 481
BSTAR          = .23515E-2
MEAN_MOTION_DOT = .529095E-2
MEAN_MOTION_DDOT = 0

CCSDS_OMM_VERS = 2.0
CREATION_DATE  = 
ORIGINATOR     = 

OBJECT_NAME    = STARLINK-36144
OBJECT_ID      = 2026-033J
CENTER_NAME    = EARTH
REF_FRAME      = TEME
TIME_SYSTEM    = UTC
MEAN_ELEMENT_THEORY = SGP/SGP4

EPOCH          = 2026-03-12T06:00:00.999648
MEAN_MOTION    = 15.75757158
ECCENTRICITY   = .00015042
INCLINATION    = 42.9994
RA_OF_ASC_NODE = 255.7903
ARG_OF_PERICENTER = 270.4643
MEAN_ANOMALY   = 279.9342

EPHEMERIS_TYPE = 0
CLASSIFICATION_TYPE = U
NORAD_CAT_ID   = 67829
ELEMENT_SET_NO = 999
REV_AT_EPOCH   = 507
BSTAR          = -.14128227E-1
MEAN_MOTION_DOT = -.1941943E-1
MEAN_MOTION_DDOT = 0

CCSDS_OMM_VERS = 2.0
CREATION_DATE  = 
ORIGINATOR     = 

OBJECT_NAME    = STARLINK-36611
OBJECT_ID      = 2026-033K
CENTER_NAME    = EARTH
REF_FRAME      = TEME
TIME_SYSTEM    = UTC
MEAN_ELEMENT_THEORY = SGP/SGP4

EPOCH          = 2026-03-12T06:00:00.999648
MEAN_MOTION    = 15.77920256
ECCENTRICITY   = .00014266
INCLINATION    = 42.9992
RA_OF_ASC_NODE = 255.7556
ARG_OF_PERICENTER = 269.5991
MEAN_ANOMALY   = 294.7683

EPHEMERIS_TYPE = 0
CLASSIFICATION_TYPE = U
NORAD_CAT_ID   = 67830
ELEMENT_SET_NO = 999
REV_AT_EPOCH   = 507
BSTAR          = -.12842685E-1
MEAN_MOTION_DOT = -.1945259E-1
MEAN_MOTION_DDOT = 0

CCSDS_OMM_VERS = 2.0
CREATION_DATE  = 
ORIGINATOR     = 

OBJECT_NAME    = STARLINK-36661
OBJECT_ID      = 2026-033L
CENTER_NAME    = EARTH
REF_FRAME      = TEME
TIME_SYSTEM    = UTC
MEAN_ELEMENT_THEORY = SGP/SGP4

EPOCH          = 2026-03-12T05:04:25.650336
MEAN_MOTION    = 15.82169346
ECCENTRICITY   = .00012945
INCLINATION    = 42.9977
RA_OF_ASC_NODE = 255.9540
ARG_OF_PERICENTER = 308.9205
MEAN_ANOMALY   = 51.1551

EPHEMERIS_TYPE = 0
CLASSIFICATION_TYPE = U
NORAD_CAT_ID   = 67831
ELEMENT_SET_NO = 999
REV_AT_EPOCH   = 502
BSTAR          = .23429084E-2
MEAN_MOTION_DOT = .527891E-2
MEAN_MOTION_DDOT = 0

CCSDS_OMM_VERS = 2.0
CREATION_DATE  = 
ORIGINATOR     = 

OBJECT_NAME    = STARLINK-36662
OBJECT_ID      = 2026-033M
CENTER_NAME    = EARTH
REF_FRAME      = TEME
TIME_SYSTEM    = UTC
MEAN_ELEMENT_THEORY = SGP/SGP4

EPOCH          = 2026-03-12T06:00:00.999648
MEAN_MOTION    = 15.84461878
ECCENTRICITY   = .00019276
INCLINATION    = 42.9977
RA_OF_ASC_NODE = 254.7758
ARG_OF_PERICENTER = 249.1891
MEAN_ANOMALY   = 343.2229

EPHEMERIS_TYPE = 0
CLASSIFICATION_TYPE = U
NORAD_CAT_ID   = 67832
ELEMENT_SET_NO = 999
REV_AT_EPOCH   = 507
BSTAR          = -.29603797E-3
MEAN_MOTION_DOT = -.69998E-3
MEAN_MOTION_DDOT = 0

CCSDS_OMM_VERS = 2.0
CREATION_DATE  = 
ORIGINATOR     = 

OBJECT_NAME    = STARLINK-36659
OBJECT_ID      = 2026-033N
CENTER_NAME    = EARTH
REF_FRAME      = TEME
TIME_SYSTEM    = UTC
MEAN_ELEMENT_THEORY = SGP/SGP4

EPOCH          = 2026-03-10T21:15:15.984288
MEAN_MOTION    = 15.82155791
ECCENTRICITY   = .0001992
INCLINATION    = 42.9978
RA_OF_ASC_NODE = 264.0779
ARG_OF_PERICENTER = 269.6927
MEAN_ANOMALY   = 90.3717

EPHEMERIS_TYPE = 0
CLASSIFICATION_TYPE = U
NORAD_CAT_ID   = 67833
ELEMENT_SET_NO = 999
REV_AT_EPOCH   = 481
BSTAR          = .24307E-2
MEAN_MOTION_DOT = .548655E-2
MEAN_MOTION_DDOT = 0

CCSDS_OMM_VERS = 2.0
CREATION_DATE  = 
ORIGINATOR     = 

OBJECT_NAME    = STARLINK-36655
OBJECT_ID      = 2026-033P
CENTER_NAME    = EARTH
REF_FRAME      = TEME
TIME_SYSTEM    = UTC
MEAN_ELEMENT_THEORY = SGP/SGP4

EPOCH          = 2026-03-12T06:00:00.999648
MEAN_MOTION    = 15.77932191
ECCENTRICITY   = .00014216
INCLINATION    = 42.9993
RA_OF_ASC_NODE = 255.7235
ARG_OF_PERICENTER = 267.7517
MEAN_ANOMALY   = 309.4845

EPHEMERIS_TYPE = 0
CLASSIFICATION_TYPE = U
NORAD_CAT_ID   = 67834
ELEMENT_SET_NO = 999
REV_AT_EPOCH   = 507
BSTAR          = -.12804661E-1
MEAN_MOTION_DOT = -.1941193E-1
MEAN_MOTION_DDOT = 0

CCSDS_OMM_VERS = 2.0
CREATION_DATE  = 
ORIGINATOR     = 

OBJECT_NAME    = STARLINK-36657
OBJECT_ID      = 2026-033Q
CENTER_NAME    = EARTH
REF_FRAME      = TEME
TIME_SYSTEM    = UTC
MEAN_ELEMENT_THEORY = SGP/SGP4

EPOCH          = 2026-03-12T06:00:00.999648
MEAN_MOTION    = 15.82032008
ECCENTRICITY   = .00009322
INCLINATION    = 42.9994
RA_OF_ASC_NODE = 255.6942
ARG_OF_PERICENTER = 262.2705
MEAN_ANOMALY   = 326.5002

EPHEMERIS_TYPE = 0
CLASSIFICATION_TYPE = U
NORAD_CAT_ID   = 67835
ELEMENT_SET_NO = 999
REV_AT_EPOCH   = 507
BSTAR          = -.10521076E-1
MEAN_MOTION_DOT = -.1930683E-1
MEAN_MOTION_DDOT = 0

CCSDS_OMM_VERS = 2.0
CREATION_DATE  = 
ORIGINATOR     = 

OBJECT_NAME    = STARLINK-36650
OBJECT_ID      = 2026-033R
CENTER_NAME    = EARTH
REF_FRAME      = TEME
TIME_SYSTEM    = UTC
MEAN_ELEMENT_THEORY = SGP/SGP4

EPOCH          = 2026-03-12T06:00:00.999648
MEAN_MOTION    = 15.73593952
ECCENTRICITY   = .00013884
INCLINATION    = 42.9994
RA_OF_ASC_NODE = 255.7606
ARG_OF_PERICENTER = 269.3956
MEAN_ANOMALY   = 292.9214

EPHEMERIS_TYPE = 0
CLASSIFICATION_TYPE = U
NORAD_CAT_ID   = 67836
ELEMENT_SET_NO = 999
REV_AT_EPOCH   = 507
BSTAR          = -.15502275E-1
MEAN_MOTION_DOT = -.1977955E-1
MEAN_MOTION_DDOT = 0

